NORAD_CAT_ID,OBJECT_NAME,OBJECT_TYPE,EPOCH,MEAN_MOTION,ECCENTRICITY,INCLINATION,RA_OF_ASC_NODE,ARG_OF_PERICENTER,MEAN_ANOMALY,BSTAR,MEAN_MOTION_DOT,MEAN_MOTION_DDOT,TLE_LINE0,TLE_LINE1,TLE_LINE2,SEMIMAJOR_AXIS,PERIOD,APOGEE,PERIGEE,DECAYED
52536.0,STARLINK-3964,PAYLOAD,2023-12-07 16:09:53,15.08833944,0.0001319,53.2163,223.786,94.2908,265.8235,2.7202e-05,1.45e-06,0.0,0 STARLINK-3964,1 52536U 22051D   23341.67353787  .00000145  00000-0  27202-4 0  9997,2 52536  53.2163 223.7860 0001319  94.2908 265.8235 15.08833944 87266,6917.899,95.438,540.676,538.851,0.0
52536.0,STARLINK-3964,PAYLOAD,2023-12-10 18:52:59,15.08856083,0.0001317,53.2159,209.8073,103.5409,256.573,0.00018921,2.726e-05,0.0,0 STARLINK-3964,1 52536U 22051D   23344.78680400  .00002726  00000-0  18921-3 0  9991,2 52536  53.2159 209.8073 0001317 103.5409 256.5730 15.08856083 87738,6917.831,95.437,540.607,538.785,0.0
52536.0,STARLINK-3964,PAYLOAD,2023-12-10 22:03:46,15.08851657,0.0001284,53.2158,209.2128,109.2322,250.8809,0.00010293,1.351e-05,0.0,0 STARLINK-3964,1 52536U 22051D   23344.91928335  .00001351  00000-0  10293-3 0  9995,2 52536  53.2158 209.2128 0001284 109.2322 250.8809 15.08851657 87682,6917.845,95.437,540.598,538.822,0.0
52536.0,STARLINK-3964,PAYLOAD,2023-12-11 18:43:46,15.08845322,0.0001365,53.2153,205.3516,91.5614,268.5534,-2.7346e-07,-2.92e-06,0.0,0 STARLINK-3964,1 52536U 22051D   23345.78040267 -.00000292  00000-0 -27346-6 0  9995,2 52536  53.2153 205.3516 0001365  91.5614 268.5534 15.08845322 87887,6917.864,95.437,540.673,538.785,0.0
52536.0,STARLINK-3964,PAYLOAD,2023-12-11 20:19:09,15.0884529,0.0001377,53.2149,205.0545,89.8964,270.2186,-4.0029e-06,-3.52e-06,0.0,0 STARLINK-3964,1 52536U 22051D   23345.84664187 -.00000352  00000-0 -40029-5 0  9994,2 52536  53.2149 205.0545 0001377  89.8964 270.2186 15.08845290 87823,6917.864,95.437,540.682,538.777,0.0
52536.0,STARLINK-3964,PAYLOAD,2023-12-12 20:09:57,15.08840354,0.0001416,53.2157,200.5924,99.6072,260.508,8.0565e-05,9.94e-06,0.0,0 STARLINK-3964,1 52536U 22051D   23346.84024535  .00000994  00000-0  80565-4 0  9990,2 52536  53.2157 200.5924 0001416  99.6072 260.5080 15.08840354 88042,6917.879,95.438,540.724,538.765,0.0
52536.0,STARLINK-3964,PAYLOAD,2023-12-12 21:45:20,15.08841186,0.0001423,53.2158,200.2961,100.7018,259.4134,8.4233e-05,1.053e-05,0.0,0 STARLINK-3964,1 52536U 22051D   23346.90648498  .00001053  00000-0  84233-4 0  9990,2 52536  53.2158 200.2961 0001423 100.7018 259.4134 15.08841186 87986,6917.877,95.437,540.726,538.757,0.0
52536.0,STARLINK-3964,PAYLOAD,2023-12-13 21:36:07,15.0884206,0.0001384,53.2153,195.833,89.8209,270.2942,9.3847e-05,1.206e-05,0.0,0 STARLINK-3964,1 52536U 22051D   23347.90008351  .00001206  00000-0  93847-4 0  9990,2 52536  53.2153 195.8330 0001384  89.8209 270.2942 15.08842060 88133,6917.874,95.437,540.697,538.782,0.0
52536.0,STARLINK-3964,PAYLOAD,2023-12-14 21:26:54,15.08840905,0.000158,53.2159,191.3695,73.5443,286.5723,8.3911e-05,1.048e-05,0.0,0 STARLINK-3964,1 52536U 22051D   23348.89368576  .00001048  00000-0  83911-4 0  9992,2 52536  53.2159 191.3695 0001580  73.5443 286.5723 15.08840905 88281,6917.878,95.437,540.836,538.65,0.0
52536.0,STARLINK-3964,PAYLOAD,2023-12-15 19:42:18,15.08836949,0.0001621,53.2158,187.2071,73.5705,286.5465,3.2015e-05,2.21e-06,0.0,0 STARLINK-3964,1 52536U 22051D   23349.82105113  .00000221  00000-0  32015-4 0  9993,2 52536  53.2158 187.2071 0001621  73.5705 286.5465 15.08836949 88498,6917.89,95.438,540.876,538.633,0.0
52536.0,STARLINK-3964,PAYLOAD,2023-12-16 19:33:05,15.08843178,0.0001411,53.2153,182.7485,87.9738,272.1415,0.00010584,1.397e-05,0.0,0 STARLINK-3964,1 52536U 22051D   23350.81464566  .00001397  00000-0  10584-3 0  9995,2 52536  53.2153 182.7485 0001411  87.9738 272.1415 15.08843178 88649,6917.871,95.437,540.712,538.76,0.0
52536.0,STARLINK-3964,PAYLOAD,2023-12-17 19:23:52,15.08844131,0.0001433,53.2159,178.2852,93.8729,266.2427,0.00011004,1.464e-05,0.0,0 STARLINK-3964,1 52536U 22051D   23351.80824450  .00001464  00000-0  11004-3 0  9990,2 52536  53.2159 178.2852 0001433  93.8729 266.2427 15.08844131 88729,6917.868,95.437,540.724,538.741,0.0
52536.0,STARLINK-3964,PAYLOAD,2023-12-18 17:39:16,15.08841183,0.0001555,53.2156,174.124,104.375,255.7414,3.631e-05,2.9e-06,0.0,0 STARLINK-3964,1 52536U 22051D   23352.73560604  .00000290  00000-0  36310-4 0  9995,2 52536  53.2156 174.1240 0001555 104.3750 255.7414 15.08841183 88935,6917.877,95.437,540.818,538.666,0.0
52536.0,STARLINK-3964,PAYLOAD,2023-12-19 19:05:26,15.08841101,0.0001504,53.2166,169.3667,105.6223,254.4935,5.0341e-05,5.13e-06,0.0,0 STARLINK-3964,1 52536U 22051D   23353.79544590  .00000513  00000-0  50341-4 0  9996,2 52536  53.2166 169.3667 0001504 105.6223 254.4935 15.08841101 89090,6917.877,95.437,540.782,538.702,0.0
52536.0,STARLINK-3964,PAYLOAD,2023-12-20 18:56:14,15.0883473,0.0001332,53.2164,164.9046,97.2458,262.8686,7.5218e-06,-1.68e-06,0.0,0 STARLINK-3964,1 52536U 22051D   23354.78905385 -.00000168  00000-0  75218-5 0  9997,2 52536  53.2164 164.9046 0001332  97.2458 262.8686 15.08834730 89248,6917.896,95.438,540.683,538.84,0.0
52536.0,STARLINK-3964,PAYLOAD,2023-12-21 15:36:14,15.08839683,0.0001198,53.216,161.038,105.2145,254.8979,5.3928e-05,5.71e-06,0.0,0 STARLINK-3964,1 52536U 22051D   23355.65017129  .00000571  00000-0  53928-4 0  9994,2 52536  53.2160 161.0380 0001198 105.2145 254.8979 15.08839683 89301,6917.881,95.438,540.575,538.918,0.0
52536.0,STARLINK-3964,PAYLOAD,2023-12-22 18:37:48,15.08845989,0.0001374,53.2156,155.9859,75.2857,284.8287,0.00022253,3.256e-05,0.0,0 STARLINK-3964,1 52536U 22051D   23356.77625033  .00003256  00000-0  22253-3 0  9996,2 52536  53.2156 155.9859 0001374  75.2857 284.8287 15.08845989 89548,6917.862,95.437,540.678,538.777,0.0
52536.0,STARLINK-3964,PAYLOAD,2023-12-23 10:31:39,15.0884155,0.0001315,53.2156,153.0155,80.1836,279.9304,3.83e-05,3.22e-06,0.0,0 STARLINK-3964,1 52536U 22051D   23357.43865281  .00000322  00000-0  38300-4 0  9993,2 52536  53.2156 153.0155 0001315  80.1836 279.9304 15.08841550 89649,6917.876,95.437,540.65,538.831,0.0
52536.0,STARLINK-3964,PAYLOAD,2023-12-23 16:53:12,15.0884111,0.0001364,53.2158,151.8236,78.9848,281.1298,5.3914e-05,5.7e-06,0.0,0 STARLINK-3964,1 52536U 22051D   23357.70361380  .00000570  00000-0  53914-4 0  9997,2 52536  53.2158 151.8236 0001364  78.9848 281.1298 15.08841110 89615,6917.877,95.437,540.686,538.798,0.0
52536.0,STARLINK-3964,PAYLOAD,2023-12-24 13:33:12,15.08847157,0.0001176,53.2162,147.9577,80.0547,280.0578,4.8848e-05,4.9e-06,0.0,0 STARLINK-3964,1 52536U 22051D   23358.56472997  .00000490  00000-0  48848-4 0  9990,2 52536  53.2162 147.9577 0001176  80.0547 280.0578 15.08847157 89745,6917.859,95.437,540.537,538.91,0.0
52536.0,STARLINK-3964,PAYLOAD,2023-12-24 19:54:44,15.08852488,0.0001223,53.2151,146.7664,89.1266,270.9866,0.00021288,3.103e-05,0.0,0 STARLINK-3964,1 52536U 22051D   23358.82968633  .00003103  00000-0  21288-3 0  9998,2 52536  53.2151 146.7664 0001223  89.1266 270.9866 15.08852488 89851,6917.842,95.437,540.553,538.861,0.0
52536.0,STARLINK-3964,PAYLOAD,2023-12-25 10:13:13,15.08840804,0.0001357,53.215,144.0832,133.6808,226.4297,-1.3711e-05,-5.06e-06,0.0,0 STARLINK-3964,1 52536U 22051D   23359.42584926 -.00000506  00000-0 -13711-4 0  9993,2 52536  53.2150 144.0832 0001357 133.6808 226.4297 15.08840804 89946,6917.878,95.438,540.682,538.804,0.0
52536.0,STARLINK-3964,PAYLOAD,2023-12-25 14:59:22,15.0884098,0.0001465,53.2149,143.1943,124.7081,235.4049,6.6356e-05,7.68e-06,0.0,0 STARLINK-3964,1 52536U 22051D   23359.62457035  .00000768  00000-0  66356-4 0  9996,2 52536  53.2149 143.1943 0001465 124.7081 235.4049 15.08840980 89907,6917.877,95.437,540.756,538.729,0.0
52536.0,STARLINK-3964,PAYLOAD,2023-12-25 19:45:32,15.08842472,0.0001328,53.2158,142.3057,96.5336,263.5807,0.00010571,1.395e-05,0.0,0 STARLINK-3964,1 52536U 22051D   23359.82329157  .00001395  00000-0  10571-3 0  9995,2 52536  53.2158 142.3057 0001328  96.5336 263.5807 15.08842472 89936,6917.873,95.437,540.657,538.819,0.0
52536.0,STARLINK-3964,PAYLOAD,2023-12-26 14:50:10,15.0883908,0.0001562,53.216,138.7353,117.6208,242.4943,-7.8293e-05,-1.534e-05,0.0,0 STARLINK-3964,1 52536U 22051D   23360.61817405 -.00001534  00000-0 -78293-4 0  9995,2 52536  53.2160 138.7353 0001562 117.6208 242.4943 15.08839080 90053,6917.883,95.438,540.829,538.668,0.0
52536.0,STARLINK-3964,PAYLOAD,2023-12-26 19:36:19,15.08839783,0.0001484,53.2162,137.8431,111.3488,248.7662,-3.4998e-05,-8.45e-06,0.0,0 STARLINK-3964,1 52536U 22051D   23360.81689404 -.00000845  00000-0 -34998-4 0  9991,2 52536  53.2162 137.8431 0001484 111.3488 248.7662 15.08839783 90154,6917.881,95.438,540.773,538.719,0.0
52536.0,STARLINK-3964,PAYLOAD,2023-12-27 08:19:25,15.08831996,0.0001394,53.2168,135.4635,102.6692,257.4457,3.946e-05,3.4e-06,0.0,0 STARLINK-3964,1 52536U 22051D   23361.34682042  .00000340  00000-0  39460-4 0  9998,2 52536  53.2168 135.4635 0001394 102.6692 257.4457 15.08831996 90236,6917.905,95.438,540.734,538.805,0.0
52536.0,STARLINK-3964,PAYLOAD,2023-12-27 14:40:57,15.08839868,0.0001333,53.2167,134.277,99.8033,260.3109,0.00011702,1.575e-05,0.0,0 STARLINK-3964,1 52536U 22051D   23361.61177759  .00001575  00000-0  11702-3 0  9991,2 52536  53.2167 134.2770 0001333  99.8033 260.3109 15.08839868 90201,6917.881,95.438,540.668,538.824,0.0
52536.0,STARLINK-3964,PAYLOAD,2023-12-28 14:31:44,15.08840918,0.0001314,53.216,129.8172,98.4368,261.6773,7.8515e-05,9.62e-06,0.0,0 STARLINK-3964,1 52536U 22051D   23362.60538072  .00000962  00000-0  78515-4 0  9995,2 52536  53.2160 129.8172 0001314  98.4368 261.6773 15.08840918 90350,6917.878,95.437,540.652,538.834,0.0
52536.0,STARLINK-3964,PAYLOAD,2023-12-28 16:07:08,15.08841502,0.0001255,53.2164,129.5222,82.7818,277.3317,9.5834e-05,1.238e-05,0.0,0 STARLINK-3964,1 52536U 22051D   23362.67162072  .00001238  00000-0  95834-4 0  9995,2 52536  53.2164 129.5222 0001255  82.7818 277.3317 15.08841502 90434,6917.876,95.437,540.609,538.873,0.0
